{"type": "FeatureCollection", "features": [ {"type": "Feature", "properties": {"norad_id": 57401, "name": "TIANMU-1 09", "group": "weather", "lat": -19.78286590045086, "lon": 44.55500614866937, "alt_km": 486.26116037126303, "timestamp": "2025-12-18T21:31:50.623625+00:00", "meta": {"OBJECT_NAME": "TIANMU-1 09", "OBJECT_ID": "2023-101C", "EPOCH": "2025-12-18T07:28:26.853024", "MEAN_MOTION": 15.28165675, "ECCENTRICITY": 0.00066155, "INCLINATION": 97.2819, "RA_OF_ASC_NODE": 41.3464, "ARG_OF_PERICENTER": 68.725, "MEAN_ANOMALY": 291.4695, "EPHEMERIS_TYPE": 0, "CLASSIFICATION_TYPE": "U", "NORAD_CAT_ID": 57401, "ELEMENT_SET_NO": 999, "REV_AT_EPOCH": 13400, "BSTAR": 0.00023858773, "MEAN_MOTION_DOT": 6.481e-05, "MEAN_MOTION_DDOT": 0}, "tle": {"line1": "1 57401U 23101C   25352.31142191  .00006481  00000+0  23859-3 0  9991", "line2": "2 57401  97.2819  41.3464 0006615  68.7250 291.4695 15.28165675134003"}}, "geometry": {"type": "Point", "coordinates": [44.55500614866937, -19.78286590045086]}}, {"type": "Feature", "properties": {"norad_id": 57402, "name": "TIANMU-1 10", "group": "weather", "lat": 27.57261889590224, "lon": -133.3921167559286, "alt_km": 479.918981333848, "timestamp": "2025-12-18T21:31:50.623641+00:00", "meta": {"OBJECT_NAME": "TIANMU-1 10", "OBJECT_ID": "2023-101D", "EPOCH": "2025-12-18T06:43:27.954624", "MEAN_MOTION": 15.2815701, "ECCENTRICITY": 0.00083361, "INCLINATION": 97.2899, "RA_OF_ASC_NODE": 42.1714, "ARG_OF_PERICENTER": 67.5634, "MEAN_ANOMALY": 292.6488, "EPHEMERIS_TYPE": 0, "CLASSIFICATION_TYPE": "U", "NORAD_CAT_ID": 57402, "ELEMENT_SET_NO": 999, "REV_AT_EPOCH": 13399, "BSTAR": 0.00024756789, "MEAN_MOTION_DOT": 6.728e-05, "MEAN_MOTION_DDOT": 0}, "tle": {"line1": "1 57402U 23101D   25352.28018466  .00006728  00000+0  24757-3 0  9997", "line2": "2 57402  97.2899  42.1714 0008336  67.5634 292.6488 15.28157010133998"}}, "geometry": {"type": "Point", "coordinates": [-133.3921167559286, 27.57261889590224]}}, {"type": "Feature", "properties": {"norad_id": 57490, "name": "FENGYUN 3F", "group": "weather", "lat": 3.147924717556841, "lon": -118.42615588634156, "alt_km": 828.0056954488946, "timestamp": "2025-12-18T21:31:50.623661+00:00", "meta": {"OBJECT_NAME": "FENGYUN 3F", "OBJECT_ID": "2023-111A", "EPOCH": "2025-12-18T07:10:17.420736", "MEAN_MOTION": 14.19895004, "ECCENTRICITY": 7.226e-05, "INCLINATION": 98.7077, "RA_OF_ASC_NODE": 60.5024, "ARG_OF_PERICENTER": 110.5599, "MEAN_ANOMALY": 249.5656, "EPHEMERIS_TYPE": 0, "CLASSIFICATION_TYPE": "U", "NORAD_CAT_ID": 57490, "ELEMENT_SET_NO": 999, "REV_AT_EPOCH": 12319, "BSTAR": 5.3713776e-05, "MEAN_MOTION_DOT": 7e-07, "MEAN_MOTION_DDOT": 0}, "tle": {"line1": "1 57490U 23111A   25352.29881274  .00000070  00000+0  53714-4 0  9991", "line2": "2 57490  98.7077  60.5024 0000722 110.5599 249.5656 14.19895004123197"}}, "geometry": {"type": "Point", "coordinates": [-118.42615588634156, 3.147924717556841]}}, {"type": "Feature", "properties": {"norad_id": 58584, "name": "ARKTIKA-M 2", "group": "weather", "lat": 49.4234660840406, "lon": -149.63672693927464, "alt_km": 28375.53683719681, "timestamp": "2025-12-18T21:31:50.623680+00:00", "meta": {"OBJECT_NAME": "ARKTIKA-M 2", "OBJECT_ID": "2023-198A", "EPOCH": "2025-12-17T19:31:00.124032", "MEAN_MOTION": 2.0060326, "ECCENTRICITY": 0.68652638, "INCLINATION": 63.225, "RA_OF_ASC_NODE": 174.3391, "ARG_OF_PERICENTER": 268.0846, "MEAN_ANOMALY": 18.8392, "EPHEMERIS_TYPE": 0, "CLASSIFICATION_TYPE": "U", "NORAD_CAT_ID": 58584, "ELEMENT_SET_NO": 999, "REV_AT_EPOCH": 1468, "BSTAR": 0, "MEAN_MOTION_DOT": 2.02e-06, "MEAN_MOTION_DDOT": 0}, "tle": {"line1": "1 58584U 23198A   25351.81319588  .00000202  00000+0  00000+0 0  9994", "line2": "2 58584  63.2250 174.3391 6865263 268.0846  18.8392  2.00603260 14687"}}, "geometry": {"type": "Point", "coordinates": [-149.63672693927464, 49.4234660840406]}}, {"type": "Feature", "properties": {"norad_id": 58645, "name": "TIANMU-1 11", "group": "weather", "lat": -72.43734469177686, "lon": 168.30924140948858, "alt_km": 494.59817071289945, "timestamp": "2025-12-18T21:31:50.623698+00:00", "meta": {"OBJECT_NAME": "TIANMU-1 11", "OBJECT_ID": "2023-205A", "EPOCH": "2025-12-18T07:49:06.629952", "MEAN_MOTION": 15.24667408, "ECCENTRICITY": 0.00076189, "INCLINATION": 97.3598, "RA_OF_ASC_NODE": 11.8513, "ARG_OF_PERICENTER": 286.912, "MEAN_ANOMALY": 73.1282, "EPHEMERIS_TYPE": 0, "CLASSIFICATION_TYPE": "U", "NORAD_CAT_ID": 58645, "ELEMENT_SET_NO": 999, "REV_AT_EPOCH": 10994, "BSTAR": 0.00022576469, "MEAN_MOTION_DOT": 5.511e-05, "MEAN_MOTION_DDOT": 0}, "tle": {"line1": "1 58645U 23205A   25352.32577118  .00005511  00000+0  22576-3 0  9997", "line2": "2 58645  97.3598  11.8513 0007618 286.9120  73.1282 15.24667408109949"}}, "geometry": {"type": "Point", "coordinates": [168.30924140948858, -72.43734469177686]}}, {"type": "Feature", "properties": {"norad_id": 58646, "name": "TIANMU-1 12", "group": "weather", "lat": 74.51540526822131, "lon": -139.9774866970845, "alt_km": 488.7546195058694, "timestamp": "2025-12-18T21:31:50.623714+00:00", "meta": {"OBJECT_NAME": "TIANMU-1 12", "OBJECT_ID": "2023-205B", "EPOCH": "2025-12-18T06:54:00.876096", "MEAN_MOTION": 15.24551184, "ECCENTRICITY": 0.00057588, "INCLINATION": 97.3586, "RA_OF_ASC_NODE": 11.6173, "ARG_OF_PERICENTER": 266.1129, "MEAN_ANOMALY": 93.945, "EPHEMERIS_TYPE": 0, "CLASSIFICATION_TYPE": "U", "NORAD_CAT_ID": 58646, "ELEMENT_SET_NO": 999, "REV_AT_EPOCH": 10992, "BSTAR": 0.00023171228, "MEAN_MOTION_DOT": 5.636e-05, "MEAN_MOTION_DDOT": 0}, "tle": {"line1": "1 58646U 23205B   25352.28751014  .00005636  00000+0  23171-3 0  9992", "line2": "2 58646  97.3586  11.6173 0005758 266.1129  93.9450 15.24551184109927"}}, "geometry": {"type": "Point", "coordinates": [-139.9774866970845, 74.51540526822131]}}, {"type": "Feature", "properties": {"norad_id": 58647, "name": "TIANMU-1 13", "group": "weather", "lat": -77.09434792703597, "lon": 46.767929043620946, "alt_km": 496.1117668970637, "timestamp": "2025-12-18T21:31:50.623734+00:00", "meta": {"OBJECT_NAME": "TIANMU-1 13", "OBJECT_ID": "2023-205C", "EPOCH": "2025-12-18T07:42:05.831712", "MEAN_MOTION": 15.24594876, "ECCENTRICITY": 0.00061757, "INCLINATION": 97.3614, "RA_OF_ASC_NODE": 11.8534, "ARG_OF_PERICENTER": 242.0949, "MEAN_ANOMALY": 117.9664, "EPHEMERIS_TYPE": 0, "CLASSIFICATION_TYPE": "U", "NORAD_CAT_ID": 58647, "ELEMENT_SET_NO": 999, "REV_AT_EPOCH": 10992, "BSTAR": 0.00022715023, "MEAN_MOTION_DOT": 5.531e-05, "MEAN_MOTION_DDOT": 0}, "tle": {"line1": "1 58647U 23205C   25352.32090083  .00005531  00000+0  22715-3 0  9997", "line2": "2 58647  97.3614  11.8534 0006175 242.0949 117.9664 15.24594876109929"}}, "geometry": {"type": "Point", "coordinates": [46.767929043620946, -77.09434792703597]}}, {"type": "Feature", "properties": {"norad_id": 58648, "name": "TIANMU-1 14", "group": "weather", "lat": 11.131446206455443, "lon": 10.306307874852482, "alt_km": 496.31128613832516, "timestamp": "2025-12-18T21:31:50.623750+00:00", "meta": {"OBJECT_NAME": "TIANMU-1 14", "OBJECT_ID": "2023-205D", "EPOCH": "2025-12-18T07:18:16.781760", "MEAN_MOTION": 15.24577748, "ECCENTRICITY": 0.00069271, "INCLINATION": 97.3547, "RA_OF_ASC_NODE": 11.1807, "ARG_OF_PERICENTER": 248.2253, "MEAN_ANOMALY": 111.8247, "EPHEMERIS_TYPE": 0, "CLASSIFICATION_TYPE": "U", "NORAD_CAT_ID": 58648, "ELEMENT_SET_NO": 999, "REV_AT_EPOCH": 10992, "BSTAR": 0.00021636011, "MEAN_MOTION_DOT": 5.263e-05, "MEAN_MOTION_DDOT": 0}, "tle": {"line1": "1 58648U 23205D   25352.30436090  .00005263  00000+0  21636-3 0  9991", "line2": "2 58648  97.3547  11.1807 0006927 248.2253 111.8247 15.24577748109921"}}, "geometry": {"type": "Point", "coordinates": [10.306307874852482, 11.131446206455443]}}, {"type": "Feature", "properties": {"norad_id": 58660, "name": "TIANMU-1 19", "group": "weather", "lat": -19.310116001933004, "lon": 106.54646925113897, "alt_km": 488.3721764303409, "timestamp": "2025-12-18T21:31:50.623765+00:00", "meta": {"OBJECT_NAME": "TIANMU-1 19", "OBJECT_ID": "2023-208A", "EPOCH": "2025-12-18T07:28:12.749952", "MEAN_MOTION": 15.27951474, "ECCENTRICITY": 0.00043492, "INCLINATION": 97.4392, "RA_OF_ASC_NODE": 103.3376, "ARG_OF_PERICENTER": 228.107, "MEAN_ANOMALY": 131.9799, "EPHEMERIS_TYPE": 0, "CLASSIFICATION_TYPE": "U", "NORAD_CAT_ID": 58660, "ELEMENT_SET_NO": 999, "REV_AT_EPOCH": 10967, "BSTAR": 0.00031372877, "MEAN_MOTION_DOT": 8.486e-05, "MEAN_MOTION_DDOT": 0}, "tle": {"line1": "1 58660U 23208A   25352.31125868  .00008486  00000+0  31373-3 0  9996", "line2": "2 58660  97.4392 103.3376 0004349 228.1070 131.9799 15.27951474109671"}}, "geometry": {"type": "Point", "coordinates": [106.54646925113897, -19.310116001933004]}}, {"type": "Feature", "properties": {"norad_id": 58661, "name": "TIANMU-1 20", "group": "weather", "lat": 78.44141434180088, "lon": 64.70734218593627, "alt_km": 475.192796567977, "timestamp": "2025-12-18T21:31:50.623782+00:00", "meta": {"OBJECT_NAME": "TIANMU-1 20", "OBJECT_ID": "2023-208B", "EPOCH": "2025-12-18T07:02:32.026272", "MEAN_MOTION": 15.29139966, "ECCENTRICITY": 0.00064669, "INCLINATION": 97.4329, "RA_OF_ASC_NODE": 103.7729, "ARG_OF_PERICENTER": 242.4226, "MEAN_ANOMALY": 117.6358, "EPHEMERIS_TYPE": 0, "CLASSIFICATION_TYPE": "U", "NORAD_CAT_ID": 58661, "ELEMENT_SET_NO": 999, "REV_AT_EPOCH": 10974, "BSTAR": 0.00027149485, "MEAN_MOTION_DOT": 7.607e-05, "MEAN_MOTION_DDOT": 0}, "tle": {"line1": "1 58661U 23208B   25352.29342623  .00007607  00000+0  27149-3 0  9994", "line2": "2 58661  97.4329 103.7729 0006466 242.4226 117.6358 15.29139966109748"}}, "geometry": {"type": "Point", "coordinates": [64.70734218593627, 78.44141434180088]}}]}